{
    "links": {
        "self": "http://www.neowsapp.com/rest/v1/neo/3332788?api_key=iIulBulltgU6a56xZRHN4H3l9WmuAYTsLGpBGhQ2"
    },
    "id": "3332788",
    "neo_reference_id": "3332788",
    "name": "(2006 JT41)",
    "designation": "2006 JT41",
    "nasa_jpl_url": "http://ssd.jpl.nasa.gov/sbdb.cgi?sstr=3332788",
    "absolute_magnitude_h": 24.5,
    "estimated_diameter": {
        "kilometers": {
            "estimated_diameter_min": 0.0334622374,
            "estimated_diameter_max": 0.0748238376
        },
        "meters": {
            "estimated_diameter_min": 33.4622374455,
            "estimated_diameter_max": 74.8238376074
        },
        "miles": {
            "estimated_diameter_min": 0.0207924639,
            "estimated_diameter_max": 0.0464933628
        },
        "feet": {
            "estimated_diameter_min": 109.7842471007,
            "estimated_diameter_max": 245.4850393757
        }
    },
    "is_potentially_hazardous_asteroid": false,
    "close_approach_data": [
        {
            "close_approach_date": "1999-05-26",
            "close_approach_date_full": "1999-May-26 01:26",
            "epoch_date_close_approach": 927681960000,
            "relative_velocity": {
                "kilometers_per_second": "14.186667574",
                "kilometers_per_hour": "51072.0032665465",
                "miles_per_hour": "31734.1566963716"
            },
            "miss_distance": {
                "astronomical": "0.3227250679",
                "lunar": "125.5400514131",
                "kilometers": "48278982.753445373",
                "miles": "29999168.8030492274"
            },
            "orbiting_body": "Earth"
        },
        {
            "close_approach_date": "2006-04-16",
            "close_approach_date_full": "2006-Apr-16 18:36",
            "epoch_date_close_approach": 1145212560000,
            "relative_velocity": {
                "kilometers_per_second": "4.8904968006",
                "kilometers_per_hour": "17605.7884820485",
                "miles_per_hour": "10939.5522931928"
            },
            "miss_distance": {
                "astronomical": "0.0563537346",
                "lunar": "21.9216027594",
                "kilometers": "8430398.662705302",
                "miles": "5238406.8208530876"
            },
            "orbiting_body": "Earth"
        },
        {
            "close_approach_date": "2013-03-04",
            "close_approach_date_full": "2013-Mar-04 18:55",
            "epoch_date_close_approach": 1362423300000,
            "relative_velocity": {
                "kilometers_per_second": "11.9322284343",
                "kilometers_per_hour": "42956.022363619",
                "miles_per_hour": "26691.201784772"
            },
            "miss_distance": {
                "astronomical": "0.2549064264",
                "lunar": "99.1585998696",
                "kilometers": "38133458.438751768",
                "miles": "23695032.3205916784"
            },
            "orbiting_body": "Earth"
        },
        {
            "close_approach_date": "2117-02-06",
            "close_approach_date_full": "2117-Feb-06 04:48",
            "epoch_date_close_approach": 4642030080000,
            "relative_velocity": {
                "kilometers_per_second": "11.8281391119",
                "kilometers_per_hour": "42581.3008027522",
                "miles_per_hour": "26458.3643793545"
            },
            "miss_distance": {
                "astronomical": "0.0554985077",
                "lunar": "21.5889194953",
                "kilometers": "8302458.540098599",
                "miles": "5158908.5150507062"
            },
            "orbiting_body": "Mars"
        }
    ],
    "orbital_data": {
        "orbit_id": "11",
        "orbit_determination_date": "2017-04-06 09:08:40",
        "first_observation_date": "2006-05-06",
        "last_observation_date": "2006-05-26",
        "data_arc_in_days": 20,
        "observations_used": 25,
        "orbit_uncertainty": "7",
        "minimum_orbit_intersection": ".0551788",
        "jupiter_tisserand_invariant": "4.033",
        "epoch_osculation": "2459000.5",
        "eccentricity": ".4020947247964026",
        "semi_major_axis": "1.751157676050704",
        "inclination": "1.792486091805444",
        "ascending_node_longitude": "117.4718620262162",
        "orbital_period": "846.4207569673592",
        "perihelion_distance": "1.047026412223988",
        "perihelion_argument": "80.78910817325647",
        "aphelion_distance": "2.45528893987742",
        "perihelion_time": "2458914.494225110195",
        "mean_anomaly": "36.58000906223496",
        "mean_motion": ".4253203823708718",
        "equinox": "J2000",
        "orbit_class": {
            "orbit_class_type": "AMO",
            "orbit_class_description": "Near-Earth asteroid orbits similar to that of 1221 Amor",
            "orbit_class_range": "1.017 AU < q (perihelion) < 1.3 AU"
        }
    },
    "is_sentry_object": false
}